NUSAT-49 (KLARA DAN VO*)
1 60500U 24149AJ  26068.79810190  .00012912  00000+0  43568-3 0  9991
2 60500  97.3807 150.7380 0001132 286.7761  73.3356 15.30828857 86935
STARLINK-35690          
1 66383U 25257D   26068.67266000  .00027485  00000+0  93685-3 0  9995
2 66383  53.1601 216.9097 0001044  74.2963 285.8153 15.30193819 19730
